[{"OBJECT_NAME":"OBJECT V","OBJECT_ID":"2023-085V","EPOCH":"2026-03-09T21:44:00.165408","MEAN_MOTION":15.30745852,"ECCENTRICITY":0.00069081,"INCLINATION":97.4843,"RA_OF_ASC_NODE":179.3833,"ARG_OF_PERICENTER":71.0503,"MEAN_ANOMALY":289.1485,"EPHEMERIS_TYPE":0,"CLASSIFICATION_TYPE":"U","NORAD_CAT_ID":57023,"ELEMENT_SET_NO":999,"REV_AT_EPOCH":15149,"BSTAR":0.00067780507,"MEAN_MOTION_DOT":0.00020109,"MEAN_MOTION_DDOT":0},{"OBJECT_NAME":"STARLINK-35462","OBJECT_ID":"2025-223Z","EPOCH":"2026-03-09T21:56:20.141664","MEAN_MOTION":15.30208743,"ECCENTRICITY":0.00013886,"INCLINATION":53.1578,"RA_OF_ASC_NODE":292.8708,"ARG_OF_PERICENTER":49.8857,"MEAN_ANOMALY":310.2265,"EPHEMERIS_TYPE":0,"CLASSIFICATION_TYPE":"U","NORAD_CAT_ID":65877,"ELEMENT_SET_NO":999,"REV_AT_EPOCH":2424,"BSTAR":0.00077418298,"MEAN_MOTION_DOT":0.00022646,"MEAN_MOTION_DDOT":0}]
